CCSDS_OMM_VERS,COMMENT,CREATION_DATE,ORIGINATOR,OBJECT_NAME,OBJECT_ID,CENTER_NAME,REF_FRAME,TIME_SYSTEM,MEAN_ELEMENT_THEORY,EPOCH,MEAN_MOTION,ECCENTRICITY,INCLINATION,RA_OF_ASC_NODE,ARG_OF_PERICENTER,MEAN_ANOMALY,EPHEMERIS_TYPE,CLASSIFICATION_TYPE,NORAD_CAT_ID,ELEMENT_SET_NO,REV_AT_EPOCH,BSTAR,MEAN_MOTION_DOT,MEAN_MOTION_DDOT,SEMIMAJOR_AXIS,PERIOD,APOAPSIS,PERIAPSIS,OBJECT_TYPE,RCS_SIZE,COUNTRY_CODE,LAUNCH_DATE,SITE,DECAY_DATE,FILE,GP_ID,TLE_LINE0,TLE_LINE1,TLE_LINE2
2,GENERATED VIA SPACE-TRACK.ORG API,2022-12-13T18:01:03,18 SPCS,SKYNET 4D,1998-002A,EARTH,TEME,UTC,SGP4,2022-12-13T06:20:42.487296,0.9915402,0.0004684,11.9543,18.1968,119.1751,67.7496,0,U,25134,999,9066,0.0,-1e-07,0,42481.022,1452.286,36122.785,36082.989,PAYLOAD,LARGE,UK,1998-01-10,AFETR,,3697190,220261866,0 SKYNET 4D,1 25134U 98002A   22347.26438064 -.00000010  00000-0  00000-0 0  9997,2 25134  11.9543  18.1968 0004684 119.1751  67.7496  0.99154020 90660
2,GENERATED VIA SPACE-TRACK.ORG API,2022-12-14T19:27:19,18 SPCS,SKYNET 4D,1998-002A,EARTH,TEME,UTC,SGP4,2022-12-14T05:48:42.861600,0.99154408,0.0004673,11.9548,18.1909,118.1574,57.8019,0,U,25134,999,9067,0.0,-3.1e-07,0,42480.911,1452.28,36122.628,36082.925,PAYLOAD,LARGE,UK,1998-01-10,AFETR,,3698874,220349927,0 SKYNET 4D,1 25134U 98002A   22348.24216275 -.00000031  00000-0  00000-0 0  9997,2 25134  11.9548  18.1909 0004673 118.1574  57.8019  0.99154408 90672
2,GENERATED VIA SPACE-TRACK.ORG API,2022-12-15T02:32:24,18 SPCS,SKYNET 4D,1998-002A,EARTH,TEME,UTC,SGP4,2022-12-14T17:29:21.825312,0.99154601,0.000467,11.9551,18.188,117.5652,232.0803,0,U,25134,999,9067,0.0,-4.2e-07,0,42480.856,1452.278,36122.56,36082.883,PAYLOAD,LARGE,UK,1998-01-10,AFETR,,3699647,220394612,0 SKYNET 4D,1 25134U 98002A   22348.72872483 -.00000042  00000-0  00000-0 0  9991,2 25134  11.9551  18.1880 0004670 117.5652 232.0803  0.99154601 90674
2,GENERATED VIA SPACE-TRACK.ORG API,2022-12-15T18:29:43,18 SPCS,SKYNET 4D,1998-002A,EARTH,TEME,UTC,SGP4,2022-12-15T05:31:49.014624,0.99154748,0.0004678,11.9554,18.1849,117.1045,51.6329,0,U,25134,999,9068,0.0,-5.3e-07,0,42480.814,1452.275,36122.552,36082.807,PAYLOAD,LARGE,UK,1998-01-10,AFETR,,3702025,220471839,0 SKYNET 4D,1 25134U 98002A   22349.23042841 -.00000053  00000-0  00000-0 0  9997,2 25134  11.9554  18.1849 0004678 117.1045  51.6329  0.99154748 90683
2,GENERATED VIA SPACE-TRACK.ORG API,2022-12-16T00:26:12,18 SPCS,SKYNET 4D,1998-002A,EARTH,TEME,UTC,SGP4,2022-12-15T16:38:52.511712,0.99154914,0.0004674,11.9556,18.1822,116.604,217.4931,0,U,25134,999,9075,0.0,-6.3e-07,0,42480.767,1452.273,36122.487,36082.776,PAYLOAD,LARGE,UK,1998-01-10,AFETR,,3702681,220504715,0 SKYNET 4D,1 25134U 98002A   22349.69366333 -.00000063  00000-0  00000+0 0  9992,2 25134  11.9556  18.1822 0004674 116.6040 217.4931  0.99154914 90755
2,GENERATED VIA SPACE-TRACK.ORG API,2022-12-16T03:30:55,18 SPCS,SKYNET 4D,1998-002A,EARTH,TEME,UTC,SGP4,2022-12-15T16:38:52.511712,0.99154914,0.0004674,11.9556,18.1822,116.604,217.4931,0,U,25134,999,9068,0.0,-6.3e-07,0,42480.767,1452.273,36122.487,36082.776,PAYLOAD,LARGE,UK,1998-01-10,AFETR,,3702726,220512923,0 SKYNET 4D,1 25134U 98002A   22349.69366333 -.00000063  00000-0  00000-0 0  9993,2 25134  11.9556  18.1822 0004674 116.6040 217.4931  0.99154914 90687
2,GENERATED VIA SPACE-TRACK.ORG API,2022-12-16T20:15:47,18 SPCS,SKYNET 4D,1998-002A,EARTH,TEME,UTC,SGP4,2022-12-16T07:08:42.635616,0.99155049,0.0004691,11.956,18.1786,116.0151,73.7096,0,U,25134,999,9069,0.0,-7.7e-07,0,42480.728,1452.271,36122.521,36082.665,PAYLOAD,LARGE,UK,1998-01-10,AFETR,,3702730,220568024,0 SKYNET 4D,1 25134U 98002A   22350.29771569 -.00000077  00000-0  00000-0 0  9997,2 25134  11.9560  18.1786 0004691 116.0151  73.7096  0.99155049 90693
2,GENERATED VIA SPACE-TRACK.ORG API,2022-12-17T02:25:48,18 SPCS,SKYNET 4D,1998-002A,EARTH,TEME,UTC,SGP4,2022-12-16T19:22:12.415296,0.99155188,0.0004701,11.9563,18.1756,115.5208,256.0336,0,U,25134,999,9070,0.0,-8.8e-07,0,42480.688,1452.269,36122.524,36082.583,PAYLOAD,LARGE,UK,1998-01-10,AFETR,,3705029,220646412,0 SKYNET 4D,1 25134U 98002A   22350.80708814 -.00000088  00000-0  00000-0 0  9999,2 25134  11.9563  18.1756 0004701 115.5208 256.0336  0.99155188 90701
2,GENERATED VIA SPACE-TRACK.ORG API,2022-12-18T02:46:40,18 SPCS,SKYNET 4D,1998-002A,EARTH,TEME,UTC,SGP4,2022-12-17T19:27:13.792320,0.99155375,0.0004736,11.9569,18.1699,114.7311,255.0375,0,U,25134,999,9071,0.0,-1.11e-06,0,42480.635,1452.266,36122.619,36082.381,PAYLOAD,LARGE,UK,1998-01-10,AFETR,,3707070,220741459,0 SKYNET 4D,1 25134U 98002A   22351.81057630 -.00000111  00000-0  00000-0 0  9991,2 25134  11.9569  18.1699 0004736 114.7311 255.0375  0.99155375 90718
2,GENERATED VIA SPACE-TRACK.ORG API,2022-12-18T07:16:14,18 SPCS,SKYNET 4D,1998-002A,EARTH,TEME,UTC,SGP4,2022-12-17T19:27:13.792320,0.99155375,0.0004736,11.9569,18.1699,114.7311,255.0375,0,U,25134,999,9077,0.0,-1.11e-06,0,42480.635,1452.266,36122.619,36082.381,PAYLOAD,LARGE,UK,1998-01-10,AFETR,,3707343,220766889,0 SKYNET 4D,1 25134U 98002A   22351.81057630 -.00000111  00000-0  00000+0 0  9990,2 25134  11.9569  18.1699 0004736 114.7311 255.0375  0.99155375 90774
2,GENERATED VIA SPACE-TRACK.ORG API,2022-12-19T03:29:36,18 SPCS,SKYNET 4D,1998-002A,EARTH,TEME,UTC,SGP4,2022-12-18T19:32:09.600000,0.99155495,0.0004776,11.9576,18.1645,114.0687,253.8914,0,U,25134,999,9072,0.0,-1.34e-06,0,42480.601,1452.264,36122.755,36082.177,PAYLOAD,LARGE,UK,1998-01-10,AFETR,,3709623,220853273,0 SKYNET 4D,1 25134U 98002A   22352.81400000 -.00000134  00000-0  00000-0 0  9990,2 25134  11.9576  18.1645 0004776 114.0687 253.8914  0.99155495 90729
2,GENERATED VIA SPACE-TRACK.ORG API,2022-12-19T17:30:06,18 SPCS,SKYNET 4D,1998-002A,EARTH,TEME,UTC,SGP4,2022-12-19T07:34:35.239296,0.99155502,0.0004817,11.9579,18.1619,113.8081,73.2387,0,U,25134,999,9072,0.0,-1.45e-06,0,42480.599,1452.264,36122.927,36082.001,PAYLOAD,LARGE,UK,1998-01-10,AFETR,,3711365,220918111,0 SKYNET 4D,1 25134U 98002A   22353.31568564 -.00000145  00000-0  00000-0 0  9998,2 25134  11.9579  18.1619 0004817 113.8081  73.2387  0.99155502 90721
2,GENERATED VIA SPACE-TRACK.ORG API,2022-12-20T00:26:13,18 SPCS,SKYNET 4D,1998-002A,EARTH,TEME,UTC,SGP4,2022-12-19T19:37:01.155072,0.99155553,0.0004835,11.9582,18.1593,113.7089,252.4254,0,U,25134,999,9079,0.0,-1.56e-06,0,42480.584,1452.264,36122.989,36081.91,PAYLOAD,LARGE,UK,1998-01-10,AFETR,,3711601,220941885,0 SKYNET 4D,1 25134U 98002A   22353.81737448 -.00000156  00000-0  00000+0 0  9993,2 25134  11.9582  18.1593 0004835 113.7089 252.4254  0.99155553 90790
2,GENERATED VIA SPACE-TRACK.ORG API,2022-12-21T17:32:25,18 SPCS,SKYNET 4D,1998-002A,EARTH,TEME,UTC,SGP4,2022-12-21T07:44:28.512672,0.99155513,0.0004919,11.9592,18.152,113.3653,70.0714,0,U,25134,999,9074,0.0,-1.88e-06,0,42480.596,1452.264,36123.357,36081.564,PAYLOAD,LARGE,UK,1998-01-10,AFETR,,3716551,221101477,0 SKYNET 4D,1 25134U 98002A   22355.32255223 -.00000188  00000-0  00000-0 0  9993,2 25134  11.9592  18.1520 0004919 113.3653  70.0714  0.99155513 90743
2,GENERATED VIA SPACE-TRACK.ORG API,2022-12-22T08:46:20,18 SPCS,SKYNET 4D,1998-002A,EARTH,TEME,UTC,SGP4,2022-12-21T19:46:53.548896,0.9915551,0.0004931,11.9595,18.1497,113.4147,249.1058,0,U,25134,999,9081,0.0,-1.98e-06,0,42480.596,1452.264,36123.409,36081.514,PAYLOAD,LARGE,UK,1998-01-10,AFETR,,3717734,221144898,0 SKYNET 4D,1 25134U 98002A   22355.82423089 -.00000198  00000-0  00000+0 0  9995,2 25134  11.9595  18.1497 0004931 113.4147 249.1058  0.99155510 90817
2,GENERATED VIA SPACE-TRACK.ORG API,2022-12-22T18:47:50,18 SPCS,SKYNET 4D,1998-002A,EARTH,TEME,UTC,SGP4,2022-12-22T07:01:42.590784,0.99155459,0.0004958,11.9598,18.1474,113.4458,56.3586,0,U,25134,999,9075,0.0,-2.07e-06,0,42480.611,1452.265,36123.538,36081.414,PAYLOAD,LARGE,UK,1998-01-10,AFETR,,3719197,221184940,0 SKYNET 4D,1 25134U 98002A   22356.29285406 -.00000207  00000-0  00000-0 0  9998,2 25134  11.9598  18.1474 0004958 113.4458  56.3586  0.99155459 90758
2,GENERATED VIA SPACE-TRACK.ORG API,2022-12-23T03:05:02,18 SPCS,SKYNET 4D,1998-002A,EARTH,TEME,UTC,SGP4,2022-12-22T19:51:41.927904,0.99155432,0.0004976,11.9601,18.145,113.6881,246.9929,0,U,25134,999,9076,0.0,-2.16e-06,0,42480.619,1452.265,36123.622,36081.345,PAYLOAD,LARGE,UK,1998-01-10,AFETR,,3719655,221219810,0 SKYNET 4D,1 25134U 98002A   22356.82756861 -.00000216  00000-0  00000-0 0  9995,2 25134  11.9601  18.1450 0004976 113.6881 246.9929  0.99155432 90769
2,GENERATED VIA SPACE-TRACK.ORG API,2022-12-23T18:35:41,18 SPCS,SKYNET 4D,1998-002A,EARTH,TEME,UTC,SGP4,2022-12-23T07:54:15.405408,0.99155373,0.0004994,11.9605,18.1426,113.8079,65.9916,0,U,25134,999,9076,0.0,-2.25e-06,0,42480.636,1452.266,36123.715,36081.286,PAYLOAD,LARGE,UK,1998-01-10,AFETR,,3720302,221259520,0 SKYNET 4D,1 25134U 98002A   22357.32934497 -.00000225  00000-0  00000-0 0  9994,2 25134  11.9605  18.1426 0004994 113.8079  65.9916  0.99155373 90766
2,GENERATED VIA SPACE-TRACK.ORG API,2022-12-24T00:16:12,18 SPCS,SKYNET 4D,1998-002A,EARTH,TEME,UTC,SGP4,2022-12-23T19:56:40.578144,0.9915533,0.0005,11.9608,18.1403,114.0768,244.8068,0,U,25134,999,9083,0.0,-2.33e-06,0,42480.648,1452.267,36123.753,36081.273,PAYLOAD,LARGE,UK,1998-01-10,AFETR,,3720438,221282111,0 SKYNET 4D,1 25134U 98002A   22357.83102521 -.00000233  00000-0  00000+0 0  9993,2 25134  11.9608  18.1403 0005000 114.0768 244.8068  0.99155330 90838
2,GENERATED VIA SPACE-TRACK.ORG API,2022-12-24T02:42:55,18 SPCS,SKYNET 4D,1998-002A,EARTH,TEME,UTC,SGP4,2022-12-23T19:56:40.578144,0.9915533,0.0005,11.9608,18.1403,114.0768,244.8068,0,U,25134,999,9076,0.0,-2.33e-06,0,42480.648,1452.267,36123.753,36081.273,PAYLOAD,LARGE,UK,1998-01-10,AFETR,,3720518,221290395,0 SKYNET 4D,1 25134U 98002A   22357.83102521 -.00000233  00000-0  00000-0 0  9994,2 25134  11.9608  18.1403 0005000 114.0768 244.8068  0.99155330 90760
